start=new Date('2022-03-21T00:00:00.000Z').valueOf();
sats=[{"COUNTRY_CODE":"US","MEAN_ELEMENT_THEORY":"SGP4","RA_OF_ASC_NODE":"26.4556","REF_FRAME":"TEME","REV_AT_EPOCH":"8602","SEMIMAJOR_AXIS":"6925.340","MEAN_MOTION_DOT":"0.00001034","EPOCH":"2022-03-20T13:41:51.492768","RCS_SIZE":"LARGE","PERIOD":"95.592","LAUNCH_DATE":"2020-09-03","GP_ID":"199266309","SITE":"AFETR","TIME_SYSTEM":"UTC","FILE":"3367488","ECCENTRICITY":"0.00015460","TLE_LINE2":"2 46357  53.0547  26.4556 0001546  49.1887 310.9235 15.06402666 86027","MEAN_ANOMALY":"310.9235","INCLINATION":"53.0547","OBJECT_NAME":"STARLINK-1666","DECAY_DATE":null,"CENTER_NAME":"EARTH","EPHEMERIS_TYPE":"0","OBJECT_ID":"2020-062AJ","ELEMENT_SET_NO":"999","MEAN_MOTION":"15.06402666","NORAD_CAT_ID":"46357","MEAN_MOTION_DDOT":"0.0000000000000","BSTAR":"0.00008827000000","OBJECT_TYPE":"PAYLOAD","CLASSIFICATION_TYPE":"U","TLE_LINE1":"1 46357U 20062AJ  22079.57073487  .00001034  00000-0  88270-4 0  9993","PERIAPSIS":"546.135","APOAPSIS":"548.276","ARG_OF_PERICENTER":"49.1887"},{"SEMIMAJOR_AXIS":"6925.335","COUNTRY_CODE":"US","REV_AT_EPOCH":"8575","REF_FRAME":"TEME","RA_OF_ASC_NODE":"46.2365","MEAN_ELEMENT_THEORY":"SGP4","LAUNCH_DATE":"2020-09-03","TIME_SYSTEM":"UTC","SITE":"AFETR","GP_ID":"199266559","RCS_SIZE":"LARGE","MEAN_MOTION_DOT":"-0.00000266","EPOCH":"2022-03-20T14:48:12.305376","PERIOD":"95.592","CENTER_NAME":"EARTH","ELEMENT_SET_NO":"999","OBJECT_ID":"2020-062AK","EPHEMERIS_TYPE":"0","TLE_LINE2":"2 46358  53.0560  46.2365 0002021  50.9791 309.1378 15.06404530 85753","ECCENTRICITY":"0.00020210","FILE":"3367488","DECAY_DATE":null,"OBJECT_NAME":"STARLINK-1690","MEAN_ANOMALY":"309.1378","INCLINATION":"53.0560","CLASSIFICATION_TYPE":"U","ARG_OF_PERICENTER":"50.9791","APOAPSIS":"548.599","TLE_LINE1":"1 46358U 20062AK  22079.61680909 -.00000266  00000-0  10431-5 0  9994","PERIAPSIS":"545.800","MEAN_MOTION_DDOT":"0.0000000000000","NORAD_CAT_ID":"46358","MEAN_MOTION":"15.06404530","OBJECT_TYPE":"PAYLOAD","BSTAR":"0.00000104310000"},{"PERIOD":"95.592","EPOCH":"2022-03-20T20:41:49.464384","MEAN_MOTION_DOT":"0.00001810","RCS_SIZE":"LARGE","GP_ID":"199267311","SITE":"AFETR","TIME_SYSTEM":"UTC","LAUNCH_DATE":"2020-09-03","RA_OF_ASC_NODE":"0.1519","MEAN_ELEMENT_THEORY":"SGP4","REF_FRAME":"TEME","REV_AT_EPOCH":"8641","COUNTRY_CODE":"US","SEMIMAJOR_AXIS":"6925.344","BSTAR":"0.00014035000000","OBJECT_TYPE":"PAYLOAD","NORAD_CAT_ID":"46359","MEAN_MOTION":"15.06401522","MEAN_MOTION_DDOT":"0.0000000000000","PERIAPSIS":"545.819","TLE_LINE1":"1 46359U 20062AL  22079.86237806  .00001810  00000-0  14035-3 0  9993","APOAPSIS":"548.599","ARG_OF_PERICENTER":"42.1132","CLASSIFICATION_TYPE":"U","MEAN_ANOMALY":"318.0011","INCLINATION":"53.0567","OBJECT_NAME":"STARLINK-1707","DECAY_DATE":null,"ECCENTRICITY":"0.00020070","FILE":"3367488","TLE_LINE2":"2 46359  53.0567   0.1519 0002007  42.1132 318.0011 15.06401522 86412","EPHEMERIS_TYPE":"0","OBJECT_ID":"2020-062AL","ELEMENT_SET_NO":"999","CENTER_NAME":"EARTH"},{"CENTER_NAME":"EARTH","OBJECT_ID":"2020-062AM","EPHEMERIS_TYPE":"0","ELEMENT_SET_NO":"999","FILE":"3367010","ECCENTRICITY":"0.00016400","TLE_LINE2":"2 46360  53.0555   1.8406 0001640  49.8126 310.3006 15.06413398 86360","MEAN_ANOMALY":"310.3006","INCLINATION":"53.0555","DECAY_DATE":null,"OBJECT_NAME":"STARLINK-1713","CLASSIFICATION_TYPE":"U","APOAPSIS":"548.308","TLE_LINE1":"1 46360U 20062AM  22079.48641258  .00002915  00000-0  21441-3 0  9999","PERIAPSIS":"546.037","ARG_OF_PERICENTER":"49.8126","NORAD_CAT_ID":"46360","MEAN_MOTION":"15.06413398","MEAN_MOTION_DDOT":"0.0000000000000","BSTAR":"0.00021441000000","OBJECT_TYPE":"PAYLOAD","SEMIMAJOR_AXIS":"6925.307","COUNTRY_CODE":"US","REF_FRAME":"TEME","RA_OF_ASC_NODE":"1.8406","MEAN_ELEMENT_THEORY":"SGP4","REV_AT_EPOCH":"8636","LAUNCH_DATE":"2020-09-03","GP_ID":"199230234","TIME_SYSTEM":"UTC","SITE":"AFETR","MEAN_MOTION_DOT":"0.00002915","EPOCH":"2022-03-20T11:40:26.046912","RCS_SIZE":"LARGE","PERIOD":"95.591"},{"ARG_OF_PERICENTER":"66.2681","PERIAPSIS":"546.070","TLE_LINE1":"1 46361U 20062AN  22079.52327035  .00002014  00000-0  15405-3 0  9992","APOAPSIS":"548.336","CLASSIFICATION_TYPE":"U","OBJECT_TYPE":"PAYLOAD","BSTAR":"0.00015405000000","MEAN_MOTION_DDOT":"0.0000000000000","NORAD_CAT_ID":"46361","MEAN_MOTION":"15.06403539","ELEMENT_SET_NO":"999","OBJECT_ID":"2020-062AN","EPHEMERIS_TYPE":"0","CENTER_NAME":"EARTH","OBJECT_NAME":"STARLINK-1722","DECAY_DATE":null,"MEAN_ANOMALY":"293.8480","INCLINATION":"53.0564","TLE_LINE2":"2 46361  53.0564   1.6815 0001636  66.2681 293.8480 15.06403539 86364","ECCENTRICITY":"0.00016360","FILE":"3367010","SITE":"AFETR","TIME_SYSTEM":"UTC","GP_ID":"199231485","LAUNCH_DATE":"2020-09-03","PERIOD":"95.592","RCS_SIZE":"LARGE","MEAN_MOTION_DOT":"0.00002014","EPOCH":"2022-03-20T12:33:30.558240","SEMIMAJOR_AXIS":"6925.338","REV_AT_EPOCH":"8636","RA_OF_ASC_NODE":"1.6815","MEAN_ELEMENT_THEORY":"SGP4","REF_FRAME":"TEME","COUNTRY_CODE":"US"},{"SEMIMAJOR_AXIS":"6925.342","COUNTRY_CODE":"US","REV_AT_EPOCH":"8636","REF_FRAME":"TEME","MEAN_ELEMENT_THEORY":"SGP4","RA_OF_ASC_NODE":"1.7625","LAUNCH_DATE":"2020-09-03","TIME_SYSTEM":"UTC","SITE":"AFETR","GP_ID":"199229980","RCS_SIZE":"LARGE","EPOCH":"2022-03-20T12:01:40.585152","MEAN_MOTION_DOT":"0.00000287","PERIOD":"95.592","CENTER_NAME":"EARTH","ELEMENT_SET_NO":"999","EPHEMERIS_TYPE":"0","OBJECT_ID":"2020-062AP","TLE_LINE2":"2 46362  53.0560   1.7625 0001825  59.5634 300.5536 15.06401988 86368","FILE":"3367010","ECCENTRICITY":"0.00018250","DECAY_DATE":null,"OBJECT_NAME":"STARLINK-1726","MEAN_ANOMALY":"300.5536","INCLINATION":"53.0560","CLASSIFICATION_TYPE":"U","ARG_OF_PERICENTER":"59.5634","APOAPSIS":"548.471","TLE_LINE1":"1 46362U 20062AP  22079.50116418  .00000287  00000-0  38161-4 0  9997","PERIAPSIS":"545.944","MEAN_MOTION_DDOT":"0.0000000000000","MEAN_MOTION":"15.06401988","NORAD_CAT_ID":"46362","OBJECT_TYPE":"PAYLOAD","BSTAR":"0.00003816100000"},{"COUNTRY_CODE":"US","REV_AT_EPOCH":"8636","REF_FRAME":"TEME","MEAN_ELEMENT_THEORY":"SGP4","RA_OF_ASC_NODE":"1.7923","SEMIMAJOR_AXIS":"6925.332","RCS_SIZE":"LARGE","EPOCH":"2022-03-20T11:51:03.634848","MEAN_MOTION_DOT":"0.00000849","PERIOD":"95.592","LAUNCH_DATE":"2020-09-03","TIME_SYSTEM":"UTC","SITE":"AFETR","GP_ID":"199230484","TLE_LINE2":"2 46363  53.0550   1.7923 0001668  50.3531 309.7605 15.06405336 86368","FILE":"3367010","ECCENTRICITY":"0.00016680","DECAY_DATE":null,"OBJECT_NAME":"STARLINK-1739","INCLINATION":"53.0550","MEAN_ANOMALY":"309.7605","CENTER_NAME":"EARTH","ELEMENT_SET_NO":"999","OBJECT_ID":"2020-062AQ","EPHEMERIS_TYPE":"0","MEAN_MOTION_DDOT":"0.0000000000000","MEAN_MOTION":"15.06405336","NORAD_CAT_ID":"46363","OBJECT_TYPE":"PAYLOAD","BSTAR":"0.00007584900000","CLASSIFICATION_TYPE":"U","ARG_OF_PERICENTER":"50.3531","APOAPSIS":"548.352","TLE_LINE1":"1 46363U 20062AQ  22079.49379207  .00000849  00000-0  75849-4 0  9991","PERIAPSIS":"546.042"},{"PERIOD":"95.592","MEAN_MOTION_DOT":"0.00000713","EPOCH":"2022-03-20T21:57:26.170272","RCS_SIZE":"LARGE","GP_ID":"199267562","SITE":"AFETR","TIME_SYSTEM":"UTC","LAUNCH_DATE":"2020-09-03","REF_FRAME":"TEME","RA_OF_ASC_NODE":"339.9711","MEAN_ELEMENT_THEORY":"SGP4","REV_AT_EPOCH":"8670","COUNTRY_CODE":"US","SEMIMAJOR_AXIS":"6925.325","BSTAR":"0.00006680800000","OBJECT_TYPE":"PAYLOAD","NORAD_CAT_ID":"46364","MEAN_MOTION":"15.06407617","MEAN_MOTION_DDOT":"0.0000000000000","APOAPSIS":"549.504","TLE_LINE1":"1 46364U 20062AR  22079.91488623  .00000713  00000-0  66808-4 0  9997","PERIAPSIS":"544.876","ARG_OF_PERICENTER":"147.2111","CLASSIFICATION_TYPE":"U","MEAN_ANOMALY":"212.9086","INCLINATION":"53.0492","DECAY_DATE":null,"OBJECT_NAME":"STARLINK-1763","ECCENTRICITY":"0.00033410","FILE":"3367488","TLE_LINE2":"2 46364  53.0492 339.9711 0003341 147.2111 212.9086 15.06407617 86705","EPHEMERIS_TYPE":"0","OBJECT_ID":"2020-062AR","ELEMENT_SET_NO":"999","CENTER_NAME":"EARTH"},{"LAUNCH_DATE":"2020-09-03","GP_ID":"199266310","TIME_SYSTEM":"UTC","SITE":"AFETR","EPOCH":"2022-03-20T20:52:26.947776","MEAN_MOTION_DOT":"0.00002514","RCS_SIZE":"LARGE","PERIOD":"95.592","SEMIMAJOR_AXIS":"6925.331","COUNTRY_CODE":"US","RA_OF_ASC_NODE":"0.1078","MEAN_ELEMENT_THEORY":"SGP4","REF_FRAME":"TEME","REV_AT_EPOCH":"8641","CLASSIFICATION_TYPE":"U","PERIAPSIS":"545.929","TLE_LINE1":"1 46365U 20062AS  22079.86975634  .00002514  00000-0  18758-3 0  9996","APOAPSIS":"548.463","ARG_OF_PERICENTER":"54.8423","NORAD_CAT_ID":"46365","MEAN_MOTION":"15.06405718","MEAN_MOTION_DDOT":"0.0000000000000","BSTAR":"0.00018758000000","OBJECT_TYPE":"PAYLOAD","CENTER_NAME":"EARTH","EPHEMERIS_TYPE":"0","OBJECT_ID":"2020-062AS","ELEMENT_SET_NO":"999","FILE":"3367488","ECCENTRICITY":"0.00018290","TLE_LINE2":"2 46365  53.0553   0.1078 0001829  54.8423 305.2737 15.06405718 86412","MEAN_ANOMALY":"305.2737","INCLINATION":"53.0553","OBJECT_NAME":"STARLINK-1550","DECAY_DATE":null},{"MEAN_ANOMALY":"302.0438","INCLINATION":"53.0562","OBJECT_NAME":"STARLINK-1651","DECAY_DATE":null,"ECCENTRICITY":"0.00016750","FILE":"3367488","TLE_LINE2":"2 46366  53.0562   0.4610 0001675  58.0714 302.0438 15.06405988 86407","OBJECT_ID":"2020-062AT","EPHEMERIS_TYPE":"0","ELEMENT_SET_NO":"999","CENTER_NAME":"EARTH","BSTAR":"0.00012391000000","OBJECT_TYPE":"PAYLOAD","MEAN_MOTION":"15.06405988","NORAD_CAT_ID":"46366","MEAN_MOTION_DDOT":"0.0000000000000","TLE_LINE1":"1 46366U 20062AT  22079.79235479  .00001565  00000-0  12391-3 0  9997","PERIAPSIS":"546.035","APOAPSIS":"548.355","ARG_OF_PERICENTER":"58.0714","CLASSIFICATION_TYPE":"U","RA_OF_ASC_NODE":"0.4610","MEAN_ELEMENT_THEORY":"SGP4","REF_FRAME":"TEME","REV_AT_EPOCH":"8640","COUNTRY_CODE":"US","SEMIMAJOR_AXIS":"6925.330","PERIOD":"95.592","MEAN_MOTION_DOT":"0.00001565","EPOCH":"2022-03-20T19:00:59.453856","RCS_SIZE":"LARGE","GP_ID":"199266560","TIME_SYSTEM":"UTC","SITE":"AFETR","LAUNCH_DATE":"2020-09-03"}];
